ONEWEB-0086             
1 45456U 20020AJ  23282.36433689  .00000585  00000+0  16158-2 0  9997
2 45456  87.8983 216.0948 0002475  77.0620 283.0785 13.11421013173921
ONEWEB-0088             
1 45457U 20020AK  23282.18903430  .00000803  00000+0  22287-2 0  9997
2 45457  87.8984 216.1099 0002090  79.5405 280.5958 13.11416314173845
ONEWEB-0102             
1 47258U 20100A   23282.12346549  .00000342  00000+0  91582-3 0  9996
2 47258  87.9072 185.9377 0001724  62.8026 297.3279 13.12441804135915
ONEWEB-0109             
1 47259U 20100B   23282.13405001  .00000309  00000+0  82280-3 0  9995
2 47259  87.9007 185.9204 0001843  72.3010 287.8320 13.12442252135744
ONEWEB-0110             
1 47260U 20100C   23281.77615977 -.00000246  00000+0 -71878-3 0  9994
2 47260  87.9074 185.9882 0001846  66.9040 293.2283 13.12444348135867
ONEWEB-0111             
1 47261U 20100D   23282.26536518  .00000495  00000+0  13398-2 0  9999
2 47261  87.9065 185.8803 0001756  69.7324 290.3993 13.12441142135760
ONEWEB-0114             
1 47262U 20100E   23281.99216568 -.00000420  00000+0 -12018-2 0  9997
2 47262  87.9073 185.9556 0001272  62.4637 297.6620 13.12443879135683
ONEWEB-0117             
1 47263U 20100F   23281.98369466 -.00000276  00000+0 -80383-3 0  9993
2 47263  87.9007 185.9602 0001787  73.5883 286.5442 13.12440519135698
